COSMOS 2251 DEB         
1 33830U 93036BX  26065.24271713  .00006151  00000+0  84224-3 0  9999
2 33830  74.0308  66.4896 0041303 171.0889 201.0161 14.78108233907054
COSMOS 2251 DEB         
1 33832U 93036BZ  26065.00292481  .00008575  00000+0  17115-2 0  9996
2 33832  74.0546  50.9346 0019817  57.9509 358.2419 14.61935763896410
COSMOS 2251 DEB         
1 33835U 93036CC  26065.10335252  .00003639  00000+0  69800-3 0  9999
2 33835  74.0570 301.5422 0054443 331.3078 150.4934 14.63172318900088
COSMOS 2251 DEB         
1 33836U 93036CD  26065.16858471  .00009194  00000+0  11716-2 0  9993
2 33836  73.9946  94.0997 0027253 282.7606 141.2751 14.81375936653238
COSMOS 2251 DEB         
1 33837U 93036CE  26065.21178902  .00001283  00000+0  32975-3 0  9996
2 33837  74.0094 258.4179 0033453 100.1756 260.3181 14.50903878900065
COSMOS 2251 DEB         
1 33838U 93036CF  26065.26079312  .00002050  00000+0  54936-3 0  9991
2 33838  74.0395 353.3606 0025180  95.9145  64.6500 14.48665012897787
COSMOS 2251 DEB         
1 33839U 93036CG  26065.22130612  .00001567  00000+0  28566-3 0  9991
2 33839  74.0386  46.0267 0083028 138.3421 243.7375 14.64712717908024
COSMOS 2251 DEB         
1 33841U 93036CJ  26065.22615470  .00000701  00000+0  24006-3 0  9998
2 33841  74.0368 124.3194 0020854 192.7693 224.8537 14.37994152893140
COSMOS 2251 DEB         
1 33842U 93036CK  26065.02250870  .00001008  00000+0  30574-3 0  9994
2 33842  74.0317  65.0363 0046118 155.4607 204.8759 14.42910518895388
COSMOS 2251 DEB         
1 33844U 93036CM  26065.23170461  .00001258  00000+0  45439-3 0  9999
2 33844  74.0638 260.3174 0048824 262.2349 220.3408 14.33949345889222
COSMOS 2251 DEB         
1 33848U 93036CR  26065.07026711  .00004642  00000+0  13286-2 0  9997
2 33848  74.0317 202.5041 0043499 242.6856 240.5437 14.44759409890342
COSMOS 2251 DEB         
1 33892U 93036CV  26065.11976874  .00001458  00000+0  60921-3 0  9996
2 33892  73.8032 309.9095 0113630 325.5946 185.6307 14.23665473881416
COSMOS 2251 DEB         
1 33894U 93036CX  26065.18920752  .00003184  00000+0  32715-2 0  9996
2 33894  73.7644 219.9502 0572210 127.4499 238.0082 13.21491292818106
COSMOS 2251 DEB         
1 33896U 93036CZ  26065.28886292  .00001296  00000+0  58187-3 0  9993
2 33896  73.7690   4.9575 0126108 167.7187 345.7500 14.19328527879255
COSMOS 2251 DEB         
1 33899U 93036DC  26065.05259564  .00002633  00000+0  51935-3 0  9997
2 33899  74.0517 286.4970 0057078 325.9206 184.6444 14.61976916900569
COSMOS 2251 DEB         
1 33900U 93036DD  26065.07645925  .00002432  00000+0  51870-3 0  9997
2 33900  74.0188 201.0303 0048523 329.6847 148.3782 14.58751547902512
