[{"OBJECT_NAME":"COSMOS 2251 DEB","OBJECT_ID":"1993-036BX","EPOCH":"2026-03-06T05:49:30.760032","MEAN_MOTION":14.78108233,"ECCENTRICITY":0.00413039,"INCLINATION":74.0308,"RA_OF_ASC_NODE":66.4896,"ARG_OF_PERICENTER":171.0889,"MEAN_ANOMALY":201.0161,"EPHEMERIS_TYPE":0,"CLASSIFICATION_TYPE":"U","NORAD_CAT_ID":33830,"ELEMENT_SET_NO":999,"REV_AT_EPOCH":90705,"BSTAR":0.00084223587,"MEAN_MOTION_DOT":6.151e-5,"MEAN_MOTION_DDOT":0},{"OBJECT_NAME":"COSMOS 2251 DEB","OBJECT_ID":"1993-036BZ","EPOCH":"2026-03-06T00:04:12.703584","MEAN_MOTION":14.61935763,"ECCENTRICITY":0.00198178,"INCLINATION":74.0546,"RA_OF_ASC_NODE":50.9346,"ARG_OF_PERICENTER":57.9509,"MEAN_ANOMALY":358.2419,"EPHEMERIS_TYPE":0,"CLASSIFICATION_TYPE":"U","NORAD_CAT_ID":33832,"ELEMENT_SET_NO":999,"REV_AT_EPOCH":89641,"BSTAR":0.0017115333,"MEAN_MOTION_DOT":8.575e-5,"MEAN_MOTION_DDOT":0},{"OBJECT_NAME":"COSMOS 2251 DEB","OBJECT_ID":"1993-036CC","EPOCH":"2026-03-06T02:28:49.657728","MEAN_MOTION":14.63172318,"ECCENTRICITY":0.00544435,"INCLINATION":74.057,"RA_OF_ASC_NODE":301.5422,"ARG_OF_PERICENTER":331.3078,"MEAN_ANOMALY":150.4934,"EPHEMERIS_TYPE":0,"CLASSIFICATION_TYPE":"U","NORAD_CAT_ID":33835,"ELEMENT_SET_NO":999,"REV_AT_EPOCH":90008,"BSTAR":0.00069800005,"MEAN_MOTION_DOT":3.639e-5,"MEAN_MOTION_DDOT":0},{"OBJECT_NAME":"COSMOS 2251 DEB","OBJECT_ID":"1993-036CD","EPOCH":"2026-03-06T04:02:45.718944","MEAN_MOTION":14.81375936,"ECCENTRICITY":0.00272531,"INCLINATION":73.9946,"RA_OF_ASC_NODE":94.0997,"ARG_OF_PERICENTER":282.7606,"MEAN_ANOMALY":141.2751,"EPHEMERIS_TYPE":0,"CLASSIFICATION_TYPE":"U","NORAD_CAT_ID":33836,"ELEMENT_SET_NO":999,"REV_AT_EPOCH":65323,"BSTAR":0.001171571,"MEAN_MOTION_DOT":9.194e-5,"MEAN_MOTION_DDOT":0},{"OBJECT_NAME":"COSMOS 2251 DEB","OBJECT_ID":"1993-036CE","EPOCH":"2026-03-06T05:04:58.571328","MEAN_MOTION":14.50903878,"ECCENTRICITY":0.00334535,"INCLINATION":74.0094,"RA_OF_ASC_NODE":258.4179,"ARG_OF_PERICENTER":100.1756,"MEAN_ANOMALY":260.3181,"EPHEMERIS_TYPE":0,"CLASSIFICATION_TYPE":"U","NORAD_CAT_ID":33837,"ELEMENT_SET_NO":999,"REV_AT_EPOCH":90006,"BSTAR":0.00032975018,"MEAN_MOTION_DOT":1.283e-5,"MEAN_MOTION_DDOT":0},{"OBJECT_NAME":"COSMOS 2251 DEB","OBJECT_ID":"1993-036CF","EPOCH":"2026-03-06T06:15:32.525568","MEAN_MOTION":14.48665012,"ECCENTRICITY":0.00251809,"INCLINATION":74.0395,"RA_OF_ASC_NODE":353.3606,"ARG_OF_PERICENTER":95.9145,"MEAN_ANOMALY":64.65,"EPHEMERIS_TYPE":0,"CLASSIFICATION_TYPE":"U","NORAD_CAT_ID":33838,"ELEMENT_SET_NO":999,"REV_AT_EPOCH":89778,"BSTAR":0.00054936047,"MEAN_MOTION_DOT":2.05e-5,"MEAN_MOTION_DDOT":0},{"OBJECT_NAME":"COSMOS 2251 DEB","OBJECT_ID":"1993-036CG","EPOCH":"2026-03-06T05:18:40.848768","MEAN_MOTION":14.64712717,"ECCENTRICITY":0.00830287,"INCLINATION":74.0386,"RA_OF_ASC_NODE":46.0267,"ARG_OF_PERICENTER":138.3421,"MEAN_ANOMALY":243.7375,"EPHEMERIS_TYPE":0,"CLASSIFICATION_TYPE":"U","NORAD_CAT_ID":33839,"ELEMENT_SET_NO":999,"REV_AT_EPOCH":90802,"BSTAR":0.0002856602,"MEAN_MOTION_DOT":1.567e-5,"MEAN_MOTION_DDOT":0},{"OBJECT_NAME":"COSMOS 2251 DEB","OBJECT_ID":"1993-036CJ","EPOCH":"2026-03-06T05:25:39.766080","MEAN_MOTION":14.37994152,"ECCENTRICITY":0.00208545,"INCLINATION":74.0368,"RA_OF_ASC_NODE":124.3194,"ARG_OF_PERICENTER":192.7693,"MEAN_ANOMALY":224.8537,"EPHEMERIS_TYPE":0,"CLASSIFICATION_TYPE":"U","NORAD_CAT_ID":33841,"ELEMENT_SET_NO":999,"REV_AT_EPOCH":89314,"BSTAR":0.00024006115,"MEAN_MOTION_DOT":7.01e-6,"MEAN_MOTION_DDOT":0},{"OBJECT_NAME":"COSMOS 2251 DEB","OBJECT_ID":"1993-036CK","EPOCH":"2026-03-06T00:32:24.751680","MEAN_MOTION":14.42910518,"ECCENTRICITY":0.0046118,"INCLINATION":74.0317,"RA_OF_ASC_NODE":65.0363,"ARG_OF_PERICENTER":155.4607,"MEAN_ANOMALY":204.8759,"EPHEMERIS_TYPE":0,"CLASSIFICATION_TYPE":"U","NORAD_CAT_ID":33842,"ELEMENT_SET_NO":999,"REV_AT_EPOCH":89538,"BSTAR":0.0003057412,"MEAN_MOTION_DOT":1.008e-5,"MEAN_MOTION_DDOT":0},{"OBJECT_NAME":"COSMOS 2251 DEB","OBJECT_ID":"1993-036CM","EPOCH":"2026-03-06T05:33:39.278304","MEAN_MOTION":14.33949345,"ECCENTRICITY":0.00488246,"INCLINATION":74.0638,"RA_OF_ASC_NODE":260.3174,"ARG_OF_PERICENTER":262.2349,"MEAN_ANOMALY":220.3408,"EPHEMERIS_TYPE":0,"CLASSIFICATION_TYPE":"U","NORAD_CAT_ID":33844,"ELEMENT_SET_NO":999,"REV_AT_EPOCH":88922,"BSTAR":0.00045439015,"MEAN_MOTION_DOT":1.258e-5,"MEAN_MOTION_DDOT":0},{"OBJECT_NAME":"COSMOS 2251 DEB","OBJECT_ID":"1993-036CR","EPOCH":"2026-03-06T01:41:11.078304","MEAN_MOTION":14.44759409,"ECCENTRICITY":0.0043499,"INCLINATION":74.0317,"RA_OF_ASC_NODE":202.5041,"ARG_OF_PERICENTER":242.6856,"MEAN_ANOMALY":240.5437,"EPHEMERIS_TYPE":0,"CLASSIFICATION_TYPE":"U","NORAD_CAT_ID":33848,"ELEMENT_SET_NO":999,"REV_AT_EPOCH":89034,"BSTAR":0.0013286072,"MEAN_MOTION_DOT":4.642e-5,"MEAN_MOTION_DDOT":0},{"OBJECT_NAME":"COSMOS 2251 DEB","OBJECT_ID":"1993-036CV","EPOCH":"2026-03-06T02:52:28.019136","MEAN_MOTION":14.23665473,"ECCENTRICITY":0.01136303,"INCLINATION":73.8032,"RA_OF_ASC_NODE":309.9095,"ARG_OF_PERICENTER":325.5946,"MEAN_ANOMALY":185.6307,"EPHEMERIS_TYPE":0,"CLASSIFICATION_TYPE":"U","NORAD_CAT_ID":33892,"ELEMENT_SET_NO":999,"REV_AT_EPOCH":88141,"BSTAR":0.00060920948,"MEAN_MOTION_DOT":1.458e-5,"MEAN_MOTION_DDOT":0},{"OBJECT_NAME":"COSMOS 2251 DEB","OBJECT_ID":"1993-036CX","EPOCH":"2026-03-06T04:32:27.529728","MEAN_MOTION":13.21491292,"ECCENTRICITY":0.05722105,"INCLINATION":73.7644,"RA_OF_ASC_NODE":219.9502,"ARG_OF_PERICENTER":127.4499,"MEAN_ANOMALY":238.0082,"EPHEMERIS_TYPE":0,"CLASSIFICATION_TYPE":"U","NORAD_CAT_ID":33894,"ELEMENT_SET_NO":999,"REV_AT_EPOCH":81810,"BSTAR":0.0032715046,"MEAN_MOTION_DOT":3.184e-5,"MEAN_MOTION_DDOT":0},{"OBJECT_NAME":"COSMOS 2251 DEB","OBJECT_ID":"1993-036CZ","EPOCH":"2026-03-06T06:55:57.756288","MEAN_MOTION":14.19328527,"ECCENTRICITY":0.0126108,"INCLINATION":73.769,"RA_OF_ASC_NODE":4.9575,"ARG_OF_PERICENTER":167.7187,"MEAN_ANOMALY":345.75,"EPHEMERIS_TYPE":0,"CLASSIFICATION_TYPE":"U","NORAD_CAT_ID":33896,"ELEMENT_SET_NO":999,"REV_AT_EPOCH":87925,"BSTAR":0.00058187033,"MEAN_MOTION_DOT":1.296e-5,"MEAN_MOTION_DDOT":0},{"OBJECT_NAME":"COSMOS 2251 DEB","OBJECT_ID":"1993-036DC","EPOCH":"2026-03-06T01:15:44.263296","MEAN_MOTION":14.61976916,"ECCENTRICITY":0.00570784,"INCLINATION":74.0517,"RA_OF_ASC_NODE":286.497,"ARG_OF_PERICENTER":325.9206,"MEAN_ANOMALY":184.6444,"EPHEMERIS_TYPE":0,"CLASSIFICATION_TYPE":"U","NORAD_CAT_ID":33899,"ELEMENT_SET_NO":999,"REV_AT_EPOCH":90056,"BSTAR":0.00051934599,"MEAN_MOTION_DOT":2.633e-5,"MEAN_MOTION_DDOT":0},{"OBJECT_NAME":"COSMOS 2251 DEB","OBJECT_ID":"1993-036DD","EPOCH":"2026-03-06T01:50:06.079200","MEAN_MOTION":14.58751547,"ECCENTRICITY":0.00485233,"INCLINATION":74.0188,"RA_OF_ASC_NODE":201.0303,"ARG_OF_PERICENTER":329.6847,"MEAN_ANOMALY":148.3782,"EPHEMERIS_TYPE":0,"CLASSIFICATION_TYPE":"U","NORAD_CAT_ID":33900,"ELEMENT_SET_NO":999,"REV_AT_EPOCH":90251,"BSTAR":0.0005186956,"MEAN_MOTION_DOT":2.432e-5,"MEAN_MOTION_DDOT":0}]
